STARLINK-31181          
1 58746U 24005U   26068.37309309 -.00000998  00000+0 -26716-4 0  9990
2 58746  43.0097  69.3095 0002025 287.6500  72.4130 15.27582211122235
TRANSPORTER-12 OBJECT BA
1 62657U 25009BA  26068.70118713  .00011330  00000+0  42733-3 0  9991
2 62657  97.3985 151.1390 0000403 234.6623 125.4579 15.27214003 63739
